FLOCK 4H-15             
1 66718U 25276BE  26189.44830183  .00003647  00000+0  17337-3 0  9990
2 66718  97.4210 262.5872 0002802 313.1399  46.9601 15.19825597 33640
FLOCK 4H-16             
1 66719U 25276BF  26189.15888749  .00004719  00000+0  22167-3 0  9998
2 66719  97.4228 262.4087 0002769 296.0822  64.0128 15.20090088 33601
FLOCK 4H-18             
1 66721U 25276BH  26189.16478470  .00004261  00000+0  20080-3 0  9992
2 66721  97.4167 262.2340 0002639 332.2746  27.8348 15.20031324 33609
FLOCK 4H-19             
1 66722U 25276BJ  26189.16958090  .00003485  00000+0  15919-3 0  9996
2 66722  97.4169 262.6887 0001809 162.6737 197.4560 15.21232752 32928
FLOCK 4H-20             
1 66723U 25276BK  26188.77781992  .00004044  00000+0  18343-3 0  9994
2 66723  97.4205 262.4033 0002101 192.6017 167.5166 15.21383130 32827
FLOCK 4H-21             
1 66724U 25276BL  26189.46505926  .00004302  00000+0  19728-3 0  9998
2 66724  97.4174 262.9121 0002011 189.2815 170.8384 15.20976508 32920
FLOCK 4H-22             
1 66725U 25276BM  26189.44154530  .00004189  00000+0  19506-3 0  9995
2 66725  97.4163 262.6055 0001451 343.4647  16.6541 15.20460256 33657
FLOCK 4H-23             
1 66726U 25276BN  26189.16402316  .00004202  00000+0  19820-3 0  9998
2 66726  97.4231 262.4151 0002841 284.4357  75.6563 15.20010103 33601
FLOCK 4H-24             
1 66727U 25276BP  26189.47844483  .00004638  00000+0  21774-3 0  9992
2 66727  97.4229 262.7531 0002445 307.3242  52.7770 15.20121356 33656
FLOCK 4H-25             
1 66728U 25276BQ  26189.48315519  .00004165  00000+0  19157-3 0  9994
2 66728  97.4185 262.9211 0001539 130.4507 229.6863 15.20889712 32954
FLOCK 4H-26             
1 66729U 25276BR  26189.51065690  .00004234  00000+0  20061-3 0  9994
2 66729  97.4182 262.5734 0003270 300.9335  59.1579 15.19846307 33654
FLOCK 4H-27             
1 66730U 25276BS  26189.51299369  .00004345  00000+0  20075-3 0  9996
2 66730  97.4159 262.8076 0001252 124.5076 235.6278 15.20712492 33670
FLOCK 4H-29             
1 66732U 25276BU  26189.16164141  .00004467  00000+0  21069-3 0  9997
2 66732  97.4159 262.2132 0001985 330.0413  30.0708 15.19981990 33608
FLOCK 4H-30             
1 66733U 25276BV  26188.75915095  .00005015  00000+0  23531-3 0  9990
2 66733  97.4221 262.0176 0002778 307.6422  52.4560 15.20102778 33544
FLOCK 4H-31             
1 66734U 25276BW  26189.43740331  .00003893  00000+0  18455-3 0  9997
2 66734  97.4159 262.4525 0002317 319.8354  40.2709 15.19885521 33648
FLOCK 4H-32             
1 66735U 25276BX  26189.16251557  .00004154  00000+0  19602-3 0  9991
2 66735  97.4213 262.3720 0003078 300.8848  59.2084 15.20002196 33602
