{"fetched_at":"2026-07-08T17:59:26.812Z","source":"https://celestrak.org/NORAD/elements/gp.php?GROUP=planet&FORMAT=JSON","constellation":"superdove","records":[{"OBJECT_NAME":"FLOCK 4H-15","OBJECT_ID":"2025-276BE","EPOCH":"2026-07-08T10:45:33.278112","CLASSIFICATION_TYPE":"U","MEAN_MOTION":15.19825597,"ECCENTRICITY":0.0002802,"INCLINATION":97.421,"RA_OF_ASC_NODE":262.5872,"ARG_OF_PERICENTER":313.1399,"MEAN_ANOMALY":46.9601,"EPHEMERIS_TYPE":0,"NORAD_CAT_ID":66718,"ELEMENT_SET_NO":999,"REV_AT_EPOCH":3364,"BSTAR":0.00017337,"MEAN_MOTION_DOT":0.00003647,"MEAN_MOTION_DDOT":0},{"OBJECT_NAME":"FLOCK 4H-16","OBJECT_ID":"2025-276BF","EPOCH":"2026-07-08T03:48:47.879136","CLASSIFICATION_TYPE":"U","MEAN_MOTION":15.20090088,"ECCENTRICITY":0.0002769,"INCLINATION":97.4228,"RA_OF_ASC_NODE":262.4087,"ARG_OF_PERICENTER":296.0822,"MEAN_ANOMALY":64.0128,"EPHEMERIS_TYPE":0,"NORAD_CAT_ID":66719,"ELEMENT_SET_NO":999,"REV_AT_EPOCH":3360,"BSTAR":0.00022167,"MEAN_MOTION_DOT":0.00004719,"MEAN_MOTION_DDOT":0},{"OBJECT_NAME":"FLOCK 4H-18","OBJECT_ID":"2025-276BH","EPOCH":"2026-07-08T03:57:17.398080","CLASSIFICATION_TYPE":"U","MEAN_MOTION":15.20031324,"ECCENTRICITY":0.0002639,"INCLINATION":97.4167,"RA_OF_ASC_NODE":262.234,"ARG_OF_PERICENTER":332.2746,"MEAN_ANOMALY":27.8348,"EPHEMERIS_TYPE":0,"NORAD_CAT_ID":66721,"ELEMENT_SET_NO":999,"REV_AT_EPOCH":3360,"BSTAR":0.0002008,"MEAN_MOTION_DOT":0.00004261,"MEAN_MOTION_DDOT":0},{"OBJECT_NAME":"FLOCK 4H-19","OBJECT_ID":"2025-276BJ","EPOCH":"2026-07-08T04:04:11.789760","CLASSIFICATION_TYPE":"U","MEAN_MOTION":15.21232752,"ECCENTRICITY":0.0001809,"INCLINATION":97.4169,"RA_OF_ASC_NODE":262.6887,"ARG_OF_PERICENTER":162.6737,"MEAN_ANOMALY":197.456,"EPHEMERIS_TYPE":0,"NORAD_CAT_ID":66722,"ELEMENT_SET_NO":999,"REV_AT_EPOCH":3292,"BSTAR":0.00015919,"MEAN_MOTION_DOT":0.00003485,"MEAN_MOTION_DDOT":0},{"OBJECT_NAME":"FLOCK 4H-20","OBJECT_ID":"2025-276BK","EPOCH":"2026-07-07T18:40:03.641088","CLASSIFICATION_TYPE":"U","MEAN_MOTION":15.2138313,"ECCENTRICITY":0.0002101,"INCLINATION":97.4205,"RA_OF_ASC_NODE":262.4033,"ARG_OF_PERICENTER":192.6017,"MEAN_ANOMALY":167.5166,"EPHEMERIS_TYPE":0,"NORAD_CAT_ID":66723,"ELEMENT_SET_NO":999,"REV_AT_EPOCH":3282,"BSTAR":0.00018343,"MEAN_MOTION_DOT":0.00004044,"MEAN_MOTION_DDOT":0},{"OBJECT_NAME":"FLOCK 4H-21","OBJECT_ID":"2025-276BL","EPOCH":"2026-07-08T11:09:41.120064","CLASSIFICATION_TYPE":"U","MEAN_MOTION":15.20976508,"ECCENTRICITY":0.0002011,"INCLINATION":97.4174,"RA_OF_ASC_NODE":262.9121,"ARG_OF_PERICENTER":189.2815,"MEAN_ANOMALY":170.8384,"EPHEMERIS_TYPE":0,"NORAD_CAT_ID":66724,"ELEMENT_SET_NO":999,"REV_AT_EPOCH":3292,"BSTAR":0.00019728,"MEAN_MOTION_DOT":0.00004302,"MEAN_MOTION_DDOT":0},{"OBJECT_NAME":"FLOCK 4H-22","OBJECT_ID":"2025-276BM","EPOCH":"2026-07-08T10:35:49.513920","CLASSIFICATION_TYPE":"U","MEAN_MOTION":15.20460256,"ECCENTRICITY":0.0001451,"INCLINATION":97.4163,"RA_OF_ASC_NODE":262.6055,"ARG_OF_PERICENTER":343.4647,"MEAN_ANOMALY":16.6541,"EPHEMERIS_TYPE":0,"NORAD_CAT_ID":66725,"ELEMENT_SET_NO":999,"REV_AT_EPOCH":3365,"BSTAR":0.00019506,"MEAN_MOTION_DOT":0.00004189,"MEAN_MOTION_DDOT":0},{"OBJECT_NAME":"FLOCK 4H-23","OBJECT_ID":"2025-276BN","EPOCH":"2026-07-08T03:56:11.601024","CLASSIFICATION_TYPE":"U","MEAN_MOTION":15.20010103,"ECCENTRICITY":0.0002841,"INCLINATION":97.4231,"RA_OF_ASC_NODE":262.4151,"ARG_OF_PERICENTER":284.4357,"MEAN_ANOMALY":75.6563,"EPHEMERIS_TYPE":0,"NORAD_CAT_ID":66726,"ELEMENT_SET_NO":999,"REV_AT_EPOCH":3360,"BSTAR":0.0001982,"MEAN_MOTION_DOT":0.00004202,"MEAN_MOTION_DDOT":0},{"OBJECT_NAME":"FLOCK 4H-24","OBJECT_ID":"2025-276BP","EPOCH":"2026-07-08T11:28:57.633312","CLASSIFICATION_TYPE":"U","MEAN_MOTION":15.20121356,"ECCENTRICITY":0.0002445,"INCLINATION":97.4229,"RA_OF_ASC_NODE":262.7531,"ARG_OF_PERICENTER":307.3242,"MEAN_ANOMALY":52.777,"EPHEMERIS_TYPE":0,"NORAD_CAT_ID":66727,"ELEMENT_SET_NO":999,"REV_AT_EPOCH":3365,"BSTAR":0.00021774,"MEAN_MOTION_DOT":0.00004638,"MEAN_MOTION_DDOT":0},{"OBJECT_NAME":"FLOCK 4H-25","OBJECT_ID":"2025-276BQ","EPOCH":"2026-07-08T11:35:44.608416","CLASSIFICATION_TYPE":"U","MEAN_MOTION":15.20889712,"ECCENTRICITY":0.0001539,"INCLINATION":97.4185,"RA_OF_ASC_NODE":262.9211,"ARG_OF_PERICENTER":130.4507,"MEAN_ANOMALY":229.6863,"EPHEMERIS_TYPE":0,"NORAD_CAT_ID":66728,"ELEMENT_SET_NO":999,"REV_AT_EPOCH":3295,"BSTAR":0.00019157,"MEAN_MOTION_DOT":0.00004165,"MEAN_MOTION_DDOT":0},{"OBJECT_NAME":"FLOCK 4H-26","OBJECT_ID":"2025-276BR","EPOCH":"2026-07-08T12:15:20.756160","CLASSIFICATION_TYPE":"U","MEAN_MOTION":15.19846307,"ECCENTRICITY":0.000327,"INCLINATION":97.4182,"RA_OF_ASC_NODE":262.5734,"ARG_OF_PERICENTER":300.9335,"MEAN_ANOMALY":59.1579,"EPHEMERIS_TYPE":0,"NORAD_CAT_ID":66729,"ELEMENT_SET_NO":999,"REV_AT_EPOCH":3365,"BSTAR":0.00020061,"MEAN_MOTION_DOT":0.00004234,"MEAN_MOTION_DDOT":0},{"OBJECT_NAME":"FLOCK 4H-27","OBJECT_ID":"2025-276BS","EPOCH":"2026-07-08T12:18:42.654816","CLASSIFICATION_TYPE":"U","MEAN_MOTION":15.20712492,"ECCENTRICITY":0.0001252,"INCLINATION":97.4159,"RA_OF_ASC_NODE":262.8076,"ARG_OF_PERICENTER":124.5076,"MEAN_ANOMALY":235.6278,"EPHEMERIS_TYPE":0,"NORAD_CAT_ID":66730,"ELEMENT_SET_NO":999,"REV_AT_EPOCH":3367,"BSTAR":0.00020075,"MEAN_MOTION_DOT":0.00004345,"MEAN_MOTION_DDOT":0},{"OBJECT_NAME":"FLOCK 4H-29","OBJECT_ID":"2025-276BU","EPOCH":"2026-07-08T03:52:45.817824","CLASSIFICATION_TYPE":"U","MEAN_MOTION":15.1998199,"ECCENTRICITY":0.0001985,"INCLINATION":97.4159,"RA_OF_ASC_NODE":262.2132,"ARG_OF_PERICENTER":330.0413,"MEAN_ANOMALY":30.0708,"EPHEMERIS_TYPE":0,"NORAD_CAT_ID":66732,"ELEMENT_SET_NO":999,"REV_AT_EPOCH":3360,"BSTAR":0.00021069,"MEAN_MOTION_DOT":0.00004467,"MEAN_MOTION_DDOT":0},{"OBJECT_NAME":"FLOCK 4H-30","OBJECT_ID":"2025-276BV","EPOCH":"2026-07-07T18:13:10.642080","CLASSIFICATION_TYPE":"U","MEAN_MOTION":15.20102778,"ECCENTRICITY":0.0002778,"INCLINATION":97.4221,"RA_OF_ASC_NODE":262.0176,"ARG_OF_PERICENTER":307.6422,"MEAN_ANOMALY":52.456,"EPHEMERIS_TYPE":0,"NORAD_CAT_ID":66733,"ELEMENT_SET_NO":999,"REV_AT_EPOCH":3354,"BSTAR":0.00023531,"MEAN_MOTION_DOT":0.00005015,"MEAN_MOTION_DDOT":0},{"OBJECT_NAME":"FLOCK 4H-31","OBJECT_ID":"2025-276BW","EPOCH":"2026-07-08T10:29:51.645984","CLASSIFICATION_TYPE":"U","MEAN_MOTION":15.19885521,"ECCENTRICITY":0.0002317,"INCLINATION":97.4159,"RA_OF_ASC_NODE":262.4525,"ARG_OF_PERICENTER":319.8354,"MEAN_ANOMALY":40.2709,"EPHEMERIS_TYPE":0,"NORAD_CAT_ID":66734,"ELEMENT_SET_NO":999,"REV_AT_EPOCH":3364,"BSTAR":0.00018455,"MEAN_MOTION_DOT":0.00003893,"MEAN_MOTION_DDOT":0},{"OBJECT_NAME":"FLOCK 4H-32","OBJECT_ID":"2025-276BX","EPOCH":"2026-07-08T03:54:01.345248","CLASSIFICATION_TYPE":"U","MEAN_MOTION":15.20002196,"ECCENTRICITY":0.0003078,"INCLINATION":97.4213,"RA_OF_ASC_NODE":262.372,"ARG_OF_PERICENTER":300.8848,"MEAN_ANOMALY":59.2084,"EPHEMERIS_TYPE":0,"NORAD_CAT_ID":66735,"ELEMENT_SET_NO":999,"REV_AT_EPOCH":3360,"BSTAR":0.00019602,"MEAN_MOTION_DOT":0.00004154,"MEAN_MOTION_DDOT":0}]}
